NOAA 15
1 25338U 98030A   22133.12962440  .00000191  00000-0  97940-4 0  9994
2 25338  98.6470 163.1220 0011135  46.0609 314.1488 14.26121930248235
NOAA 18
1 28654U 05018A   22133.14835775  .00000136  00000-0  97472-4 0  9993
2 28654  98.9502 203.6100 0015274  73.5688 286.7161 14.12726305875088
THEMIS E
1 30798U 07004E   22132.87469073 -.00000097  00000-0  00000-0 0  9999
2 30798  11.4492 351.0152 8330047 161.7302 258.1379  0.87840905 52757
AIM
1 31304U 07015A   22132.72082084  .00008504  00000-0  43256-3 0  9995
2 31304  97.8565  50.6029 0006423 126.2080 233.9747 15.17088893825773
GLAST
1 33053U 08029A   22132.46951915  .00001714  00000-0  80014-4 0  9993
2 33053  25.5832  52.5265 0012317 122.3627 237.8102 15.12081750768243
NOAA 19
1 33591U 09005A   22133.14555318  .00000183  00000-0  12395-3 0  9993
2 33591  99.1510 166.5351 0012871 288.2780  71.6990 14.12561482683462
WISE
1 36119U 09071A   22132.82926255  .00007047  00000-0  22256-3 0  9994
2 36119  97.2431 167.9674 0004150  83.0870 277.0844 15.33122590690046
METOP-B
1 38771U 12049A   22133.15548883  .00000091  00000-0  61350-4 0  9994
2 38771  98.6981 193.4255 0001811 122.5714 322.8137 14.21501686500714
TDRS 11
1 39070U 13004A   22132.80850977  .00000084  00000-0  00000-0 0  9993
2 39070   2.9635 345.0847 0007381  61.1826 300.9179  1.00273175 31694
SARAL
1 39086U 13009A   22133.17530874  .00000082  00000-0  46832-4 0  9992
2 39086  98.5479 319.3404 0001834  52.8367 307.2984 14.32037774481432
SKYSAT 1
1 39418U 13066C   22132.48135078  .00002104  00000-0  17428-3 0  9999
2 39418  97.5546 205.3578 0021741  31.4644 328.7875 14.99738140463267
TDRS 12
1 39504U 14004A   22132.83511132 -.00000266  00000-0  00000-0 0  9999
2 39504   3.8914 346.6912 0004469 102.4627  41.1150  1.00276101 29274
GPM
1 39574U 14009C   22132.85409713  .00021498  00000-0  30607-3 0  9992
2 39574  65.0024 309.5549 0009961 255.7946 104.2095 15.56314254466064
SKYSAT 2
1 40072U 14037D   22132.91351478  .00000575  00000-0  80509-4 0  9999
2 40072  98.4147 359.6531 0007653  73.1749 287.0301 14.81667876423983
MMS 1
1 40482U 15011A   22132.55687424  .00000225  00000-0  00000+0 0  9995
2 40482  32.5005 106.6562 8627202  50.1048  26.2088  0.28432922 13198
MMS 2
1 40483U 15011B   22128.82687304 -.00000172  00000-0  00000-0 0  9991
2 40483  32.4772 106.6740 8625794  50.0322   4.5175  0.28432583 13251
MMS 3
1 40484U 15011C   22132.47671278  .00000221  00000-0  00000+0 0  9994
2 40484  32.4955 106.6811 8627165  50.0789  18.0198  0.28432208 13175
MMS 4
1 40485U 15011D   22132.48950823  .00000222  00000-0  00000+0 0  9993
2 40485  32.5008 106.6784 8627548  50.0922  19.3006  0.28432083 13172
SKYSAT C1
1 41601U 16040C   22132.43137639  .00009165  00000-0  24568-3 0  9998
2 41601  97.1565 208.7250 0000855 228.3174 131.7999 15.38198599328466
FLOCK 2P 9
1 41610U 16040M   22133.10919190  .00017761  00000-0  55676-3 0  9998
2 41610  97.2346 192.0253 0009111 215.5439 144.5198 15.33083422327632
FLOCK 2P 8
1 41613U 16040Q   22132.89154308  .00020367  00000-0  63891-3 0  9992
2 41613  97.2391 192.8504 0008789 226.3377 133.7137 15.33036697327762
FLOCK 2P 3
1 41618U 16040V   22132.59778132  .00030144  00000-0  94386-3 0  9998
2 41618  97.2414 193.0635 0008368 226.0553 134.0000 15.33020279327725
SKYSAT C4
1 41771U 16058B   22132.65163535  .00009293  00000-0  24870-3 0  9991
2 41771  97.1221 199.0127 0001395 200.1565 159.9625 15.38245925315459
SKYSAT C5
1 41772U 16058C   22133.17645559  .00005383  00000-0  21060-3 0  9995
2 41772  97.2684 197.6853 0001569  91.4833 268.6586 15.26239803314397
TDRS 13
1 42915U 17047A   22132.84095493 -.00000098  00000-0  00000-0 0  9990
2 42915   4.5296 333.1747 0019308 107.3166  81.2757  1.00272168 17344
NOAA 20
1 43013U 17073A   22133.05182717  .00000041  00000-0  40059-4 0  9998
2 43013  98.7150  72.1629 0001285 105.4950 254.6369 14.19550480232201
METOP-C
1 43689U 18087A   22133.17604986  .00000090  00000-0  61233-4 0  9994
2 43689  98.6862 193.7164 0003802 129.5526 230.5988 14.21505213182296
ANGELS
1 44876U 19092D   22132.73360536  .00002733  00000-0  13861-3 0  9990
2 44876  97.4744 316.5783 0013561 119.1685 241.0907 15.17714352132821
