index,OBJECT_NAME,OBJECT_ID,EPOCH,MEAN_MOTION,ECCENTRICITY,INCLINATION,RA_OF_ASC_NODE,ARG_OF_PERICENTER,MEAN_ANOMALY,EPHEMERIS_TYPE,CLASSIFICATION_TYPE,NORAD_CAT_ID,ELEMENT_SET_NO,REV_AT_EPOCH,BSTAR,MEAN_MOTION_DOT,MEAN_MOTION_DDOT,GROUP,downloaded
18,THEMIS E,2007-004E,2022-05-12T20:59:33.279072,0.87840905,0.8330047,11.4492,351.0152,161.7302,258.1379,0,U,30798,999,5275,0.0,-9.7e-07,0.0,tdrss,2022-05-13 13:10:37.060359
19,AIM,2007-015A,2022-05-12T17:17:58.920576,15.17088893,0.0006423,97.8565,50.6029,126.208,233.9747,0,U,31304,999,82577,0.00043256,8.504e-05,0.0,tdrss,2022-05-13 13:10:37.060359
20,FGRST (GLAST),2008-029A,2022-05-12T11:16:06.454560,15.1208175,0.0012317,25.5832,52.5265,122.3627,237.8102,0,U,33053,999,76824,8.0014e-05,1.714e-05,0.0,tdrss,2022-05-13 13:10:37.060359
21,WISE,2009-071A,2022-05-12T19:54:08.284320,15.3312259,0.000415,97.2431,167.9674,83.087,277.0844,0,U,36119,999,69004,0.00022256,7.047e-05,0.0,tdrss,2022-05-13 13:10:37.060359
22,TDRS 11,2013-004A,2022-05-12T19:24:15.244128,1.00273175,0.0007381,2.9635,345.0847,61.1826,300.9179,0,U,39070,999,3169,0.0,8.4e-07,0.0,tdrss,2022-05-13 13:10:37.060359
23,TDRS 12,2014-004A,2022-05-12T20:02:33.618048,1.00276101,0.0004469,3.8914,346.6912,102.4627,41.115,0,U,39504,999,2927,0.0,-2.66e-06,0.0,tdrss,2022-05-13 13:10:37.060359
24,GPM-CORE,2014-009C,2022-05-12T20:29:53.992032,15.56314254,0.0009961,65.0024,309.5549,255.7946,104.2095,0,U,39574,999,46606,0.00030607,0.00021498,0.0,tdrss,2022-05-13 13:10:37.060359
25,MMS 1,2015-011A,2022-05-12T13:21:53.934336,0.28432922,0.8627202,32.5005,106.6562,50.1048,26.2088,0,U,40482,999,1319,0.0,2.25e-06,0.0,tdrss,2022-05-13 13:10:37.060359
26,MMS 2,2015-011B,2022-05-08T19:50:41.830656,0.28432583,0.8625794,32.4772,106.674,50.0322,4.5175,0,U,40483,999,1325,0.0,-1.72e-06,0.0,tdrss,2022-05-13 13:10:37.060359
27,MMS 3,2015-011C,2022-05-12T11:26:27.984192,0.28432208,0.8627165,32.4955,106.6811,50.0789,18.0198,0,U,40484,999,1317,0.0,2.21e-06,0.0,tdrss,2022-05-13 13:10:37.060359
28,MMS 4,2015-011D,2022-05-12T11:44:53.511072,0.28432083,0.8627548,32.5008,106.6784,50.0922,19.3006,0,U,40485,999,1317,0.0,2.22e-06,0.0,tdrss,2022-05-13 13:10:37.060359
29,TDRS 13,2017-047A,2022-05-12T20:10:58.505952,1.00272168,0.0019308,4.5296,333.1747,107.3166,81.2757,0,U,42915,999,1734,0.0,-9.8e-07,0.0,tdrss,2022-05-13 13:10:37.060359
30,JPSS-1,2017-073A,2022-05-13T01:14:37.867488,14.1955048,0.0001285,98.715,72.1629,105.495,254.6369,0,U,43013,999,23220,4.0059e-05,4.1e-07,0.0,tdrss,2022-05-13 13:10:37.060359
0,NOAA 15,1998-030A,2022-05-13T03:06:39.548160,14.2612193,0.0011135,98.647,163.122,46.0609,314.1488,0,U,25338,999,24823,9.794e-05,1.91e-06,0.0,argos,2022-05-13 13:10:37.939972
1,NOAA 18,2005-018A,2022-05-13T03:33:38.109600,14.12726305,0.0015274,98.9502,203.61,73.5688,286.7161,0,U,28654,999,87508,9.7472e-05,1.36e-06,0.0,argos,2022-05-13 13:10:37.939972
2,NOAA 19,2009-005A,2022-05-13T03:29:35.794752,14.12561482,0.0012871,99.151,166.5351,288.278,71.699,0,U,33591,999,68346,0.00012395,1.83e-06,0.0,argos,2022-05-13 13:10:37.939972
3,METOP-B,2012-049A,2022-05-13T03:43:54.234912,14.21501686,0.0001811,98.6981,193.4255,122.5714,322.8137,0,U,38771,999,50071,6.135e-05,9.1e-07,0.0,argos,2022-05-13 13:10:37.939972
4,SARAL,2013-009A,2022-05-13T04:12:26.675136,14.32037774,0.0001834,98.5479,319.3404,52.8367,307.2984,0,U,39086,999,48143,4.6832e-05,8.2e-07,0.0,argos,2022-05-13 13:10:37.939972
5,METOP-C,2018-087A,2022-05-13T04:13:30.707904,14.21505213,0.0003802,98.6862,193.7164,129.5526,230.5988,0,U,43689,999,18229,6.1233e-05,9e-07,0.0,argos,2022-05-13 13:10:37.939972
6,ANGELS,2019-092D,2022-05-12T17:36:23.503104,15.17714352,0.0013561,97.4744,316.5783,119.1685,241.0907,0,U,44876,999,13282,0.00013861,2.733e-05,0.0,argos,2022-05-13 13:10:37.939972
0,SKYSAT-A,2013-066C,2022-05-12T11:33:08.707392,14.9973814,0.0021741,97.5546,205.3578,31.4644,328.7875,0,U,39418,999,46326,0.00017428,2.104e-05,0.0,planet,2022-05-13 13:10:39.124476
1,SKYSAT-B,2014-037D,2022-05-12T21:55:27.676992,14.81667876,0.0007653,98.4147,359.6531,73.1749,287.0301,0,U,40072,999,42398,8.0509e-05,5.75e-06,0.0,planet,2022-05-13 13:10:39.124476
2,SKYSAT-C1,2016-040C,2022-05-12T10:21:10.920096,15.38198599,8.55e-05,97.1565,208.725,228.3174,131.7999,0,U,41601,999,32846,0.00024568,9.165e-05,0.0,planet,2022-05-13 13:10:39.124476
3,FLOCK 2P-9,2016-040M,2022-05-13T02:37:14.180160,15.33083422,0.0009111,97.2346,192.0253,215.5439,144.5198,0,U,41610,999,32763,0.00055676,0.00017761,0.0,planet,2022-05-13 13:10:39.124476
4,FLOCK 2P-8,2016-040Q,2022-05-12T21:23:49.322112,15.33036697,0.0008789,97.2391,192.8504,226.3377,133.7137,0,U,41613,999,32776,0.00063891,0.00020367,0.0,planet,2022-05-13 13:10:39.124476
5,FLOCK 2P-3,2016-040V,2022-05-12T14:20:48.306048,15.33020279,0.0008368,97.2414,193.0635,226.0553,134.0,0,U,41618,999,32772,0.00094386,0.00030144,0.0,planet,2022-05-13 13:10:39.124476
6,SKYSAT-C4,2016-058B,2022-05-12T15:38:21.294240,15.38245925,0.0001395,97.1221,199.0127,200.1565,159.9625,0,U,41771,999,31545,0.0002487,9.293e-05,0.0,planet,2022-05-13 13:10:39.124476
7,SKYSAT-C5,2016-058C,2022-05-13T04:14:05.762976,15.26239803,0.0001569,97.2684,197.6853,91.4833,268.6586,0,U,41772,999,31439,0.0002106,5.383e-05,0.0,planet,2022-05-13 13:10:39.124476
